AMC-1 (GE-1)            
1 24315U 96054A   22331.36135521  .00000071  00000+0  00000+0 0  9992
2 24315   6.0044  71.7472 0003342 174.1579 179.5441  1.00271038 96014
AMC-3 (GE-3)            
1 24936U 97050A   22330.77692194 -.00000251  00000+0  00000+0 0  9997
2 24936   4.9409  77.9345 0002751 172.9813  22.4647  1.00269426 39415
ASTRA 1G                
1 25071U 97076A   22331.01032326  .00000122  00000+0  00000+0 0  9995
2 25071   6.6161  67.0208 0003126 180.3138 201.6941  1.00270995 91529
ASTRA 2A                
1 25462U 98050A   22331.01781944  .00000078  00000+0  00000+0 0  9999
2 25462   3.8091  83.7998 0002734 155.4306 250.3384  1.00268658 88722
AMC-4 (GE-4)            
1 25954U 99060A   22330.76437019  .00000098  00000+0  00000+0 0  9991
2 25954   1.9283  89.9382 0002810 151.7980 324.2232  1.00271152 30539
NSS-11 (AAP-1)          
1 26554U 00059A   22330.82634449  .00000036  00000+0  00000+0 0  9993
2 26554   0.0140 350.6336 0002189 270.7506 277.8499  1.00270312 28273
AMC-6 (GE-6)            
1 26580U 00067A   22331.05050630  .00000114  00000+0  00000+0 0  9998
2 26580   0.0138 328.2730 0002792 285.6662  51.2092  1.00271813 80960
ASTRA 2D                
1 26638U 00081A   22330.93939744  .00000136  00000+0  00000+0 0  9990
2 26638   7.6357  59.1870 0002067 211.4059 157.1127  1.00273719 80374
AMC-8 (GE-8)            
1 26639U 00081B   22330.43660493  .00000100  00000+0  00000+0 0  9999
2 26639   2.8528  86.8057 0000579  67.0164 293.7001  1.00271563 80311
ASTRA 2C                
1 26853U 01025A   22330.77683479 -.00000249  00000+0  00000+0 0  9997
2 26853   4.9652  77.7414 0002954 176.7693  18.3569  1.00268361 32027
ASTRA 3A                
1 27400U 02015B   22331.36450589  .00000074  00000+0  00000+0 0  9991
2 27400   7.7449  58.1049 0000443 343.0167  27.4169  0.99084224 75704
NSS-7                   
1 27414U 02019A   22330.17063220 -.00000147  00000+0  00000+0 0  9992
2 27414   6.2762  69.9604 0002408 186.0513 210.5017  1.00271769 75545
NSS-6                   
1 27603U 02057A   22331.04440476  .00000117  00000+0  00000+0 0  9999
2 27603   2.0201  89.7197 0003618 160.2227  22.4736  1.00271584 73017
AMC-11 (GE-11)          
1 28252U 04017A   22331.36125207  .00000078  00000+0  00000+0 0  9991
2 28252   0.0168 341.7785 0002538 266.5764 176.9696  1.00269709 67691
AMC-15                  
1 28446U 04041A   22331.05721800 -.00000079  00000+0  00000+0 0  9992
2 28446   0.0186   2.9592 0002222 230.4090 108.1640  1.00271371 66334
NSS-10 (AMC-12)         
1 28526U 05003A   22331.35768289 -.00000243  00000+0  00000+0 0  9998
2 28526   3.1882  85.5764 0002777 155.8371 276.1677  1.00270212 65300
ASTRA 1KR               
1 29055U 06012A   22331.29719044  .00000129  00000+0  00000+0 0  9997
2 29055   0.0178 318.2181 0005115 279.0037 315.1655  1.00271292 60739
AMC-18                  
1 29644U 06054B   22330.55953251 -.00000203  00000+0  00000+0 0  9999
2 29644   0.0343  58.4813 0002296 180.3047 305.1312  1.00271612 58523
ASTRA 1L                
1 31306U 07016A   22330.72331549  .00000131  00000+0  00000+0 0  9994
2 31306   0.0366 347.1905 0004868 283.4533  74.5744  1.00271579 57020
ASTRA 4A (SIRIUS 4)     
1 32299U 07057A   22331.15083314  .00000042  00000+0  00000+0 0  9994
2 32299   0.0472  77.4169 0002598 165.9471 241.8146  1.00271008 54948
AMC-21                  
1 33275U 08038B   22331.05329558  .00000046  00000+0  00000+0 0  9995
2 33275   0.0372  58.6348 0002497 195.5170  66.1120  1.00271579 52452
ASTRA 1M                
1 33436U 08057A   22331.01023609  .00000130  00000+0  00000+0 0  9993
2 33436   0.0651 103.2816 0003190  91.9970 253.5443  1.00270310 51468
CIEL-2                  
1 33453U 08063A   22331.05251109  .00000068  00000+0  00000+0 0  9991
2 33453   0.0611 113.7818 0002799 140.1505  62.0963  1.00268100 51112
NSS-9                   
1 33749U 09008A   22330.82773913  .00000083  00000+0  00000+0 0  9992
2 33749   0.0171 337.1499 0001962 259.0275 310.6283  1.00269602 50511
SES-7 (PROTOSTAR 2)     
1 34941U 09027A   22331.34979983 -.00000336  00000+0  00000+0 0  9993
2 34941   0.0741  92.1040 0001721 159.8542  48.4905  1.00269872 49598
NSS-12                  
1 36032U 09058A   22331.37642337  .00000080  00000+0  00000+0 0  9998
2 36032   0.0253  42.2084 0002662 205.5084  11.0732  1.00270658 47897
SES-1                   
1 36516U 10016A   22330.62087478 -.00000102  00000+0  00000+0 0  9993
2 36516   0.0318  53.0969 0002341 186.5515 308.4128  1.00272469 46027
ASTRA 3B                
1 36581U 10021A   22331.34771747  .00000146  00000+0  00000+0 0  9997
2 36581   0.0475  20.6196 0003977 224.8138 329.5383  1.00273789 45637
SES-3                   
1 37748U 11035A   22330.61750241 -.00000090  00000+0  00000+0 0  9993
2 37748   0.0411  56.9749 0002658 167.1401 320.7228  1.00270703 41579
ASTRA 1N                
1 37775U 11041A   22331.05882618  .00000131  00000+0  00000+0 0  9998
2 37775   0.0773  56.6864 0001494 270.5267 139.1739  1.00276391 41388
SES-2                   
1 37809U 11049A   22330.77378400 -.00000184  00000+0  00000+0 0  9990
2 37809   0.0124 330.5511 0002327 277.7819   8.9188  1.00269197 40934
QUETZSAT 1              
1 37826U 11054A   22331.31060270 -.00000233  00000+0  00000+0 0  9994
2 37826   0.0169  11.0565 0002549 222.4601 227.5322  1.00271039 41088
SES-4                   
1 38087U 12007A   22331.17132861 -.00000158  00000+0  00000+0 0  9999
2 38087   0.0139 347.0631 0002558 270.5301 208.1759  1.00271958 39471
SES-5                   
1 38652U 12036A   22331.29440116  .00000043  00000+0  00000+0 0  9999
2 38652   0.0558 295.9217 0001957 300.8409 300.4045  1.00270615 38059
ASTRA 2F                
1 38778U 12051A   22330.82688152  .00000161  00000+0  00000+0 0  9998
2 38778   0.0506 239.4519 0004265 353.2489 158.9171  1.00272491 28109
SES-6                   
1 39172U 13026A   22331.35707274 -.00000252  00000+0  00000+0 0  9998
2 39172   0.0176 341.9300 0002066 263.2637 269.1232  1.00271383 34705
O3B FM5                 
1 39188U 13031A   22330.78834480 -.00000014  00000+0  00000+0 0  9993
2 39188   0.0659  10.8999 0002795 239.7939 109.2813  5.00115283172078
O3B FM4                 
1 39189U 13031B   22330.24462834 -.00000013  00000+0  00000+0 0  9994
2 39189   0.0432 353.3529 0002737 256.2678 110.3557  5.00115824172071
O3B FM2                 
1 39190U 13031C   22330.73589101 -.00000014  00000+0  00000+0 0  9998
2 39190   0.0406 347.3334 0002740 261.5855 111.0572  5.00115060172157
O3B PFM                 
1 39191U 13031D   22330.76213757 -.00000014  00000+0  00000+0 0  9993
2 39191   0.0574   8.1923 0002735 237.9733 113.8111  5.00115691172166
ASTRA 2E                
1 39285U 13056A   22331.08389046  .00000160  00000+0  00000+0 0  9996
2 39285   0.0588 346.1131 0002308 271.7551 226.8133  1.00272063 33574
SES-8                   
1 39460U 13071A   22331.39215911 -.00000261  00000+0  00000+0 0  9994
2 39460   0.0156 277.9636 0000831 257.1781 127.3329  1.00270718 32850
ASTRA 5B                
1 39617U 14011B   22330.82688152  .00000166  00000+0  00000+0 0  9994
2 39617   0.0465 321.1098 0003730 270.4203 163.4248  1.00271530 31649
O3B FM3                 
1 40079U 14038A   22330.61706188 -.00000013  00000+0  00000+0 0  9996
2 40079   0.0494 359.3344 0004554 221.0530 139.5843  5.00115291148078
O3B FM7                 
1 40080U 14038B   22330.96290944 -.00000014  00000+0  00000+0 0  9995
2 40080   0.0492 354.1514 0002612 293.1227  72.7025  5.00115474153211
O3B FM6                 
1 40081U 14038C   22329.98985013 -.00000012  00000+0  00000+0 0  9992
2 40081   0.0484 359.4040 0002796 246.3361 114.2368  5.00115260152828
O3B FM8                 
1 40082U 14038D   22330.04372964 -.00000012  00000+0  00000+0 0  9997
2 40082   0.0453 358.0629 0002670 244.9656 116.9503  5.00115634152954
O3B FM10                
1 40348U 14083A   22330.26974952 -.00000013  00000+0  00000+0 0  9992
2 40348   0.0523   8.7750 0002713 237.1218 114.0806  5.00115098144902
O3B FM11                
1 40349U 14083B   22330.08328220 -.00000012  00000+0  00000+0 0  9993
2 40349   0.0558   5.3455 0002906 254.4460 100.1817  5.00115334144924
O3B FM12                
1 40350U 14083C   22330.71017887 -.00000014  00000+0  00000+0 0  9991
2 40350   0.0547   5.1582 0002896 242.6139 112.2026  5.00115208144963
O3B FM9                 
1 40351U 14083D   22330.53705924 -.00000013  00000+0  00000+0 0  9997
2 40351   0.0568   4.7858 0002713 242.6729 112.5182  5.00116054145104
ASTRA 2G                
1 40364U 14089A   22331.08382465  .00000160  00000+0  00000+0 0  9991
2 40364   0.0390  19.4129 0000990  30.8865  74.0953  1.00269178 29008
SES-9                   
1 41380U 16013A   22331.34979983 -.00000336  00000+0  00000+0 0  9991
2 41380   0.0159 303.7487 0000738 207.7110 149.0283  1.00269726 24737
SES-10                  
1 42432U 17017A   22331.25365361 -.00000264  00000+0  00000+0 0  9994
2 42432   0.0154  16.6082 0002599 234.6316 199.3476  1.00270629 20716
SES-15                  
1 42709U 17026A   22330.69376656  .00000071  00000+0  00000+0 0  9992
2 42709   0.0190 355.3289 0000949 202.4177 348.4764  1.00274365 21168
SES-11 (ECHOSTAR 105)   
1 42967U 17063A   22330.61591427 -.00000077  00000+0  00000+0 0  9993
2 42967   0.0101 329.4612 0002592 278.2831 294.5881  1.00271365 18706
SES-14                  
1 43175U 18012B   22330.78180319 -.00000267  00000+0  00000+0 0  9993
2 43175   0.0099 324.3922 0000817 263.0123  72.2442  1.00271261 18020
O3B FM15                
1 43231U 18024A   22330.40311265 -.00000013  00000+0  00000+0 0  9993
2 43231   0.0503  12.0593 0003054 234.9185 112.9957  5.00116092 86054
O3B FM16                
1 43232U 18024B   22330.45652507 -.00000013  00000+0  00000+0 0  9996
2 43232   0.0490  16.5667 0003047 230.9395 112.4672  5.00115882 85966
O3B FM14                
1 43233U 18024C   22330.69613401 -.00000014  00000+0  00000+0 0  9994
2 43233   0.0480  17.9209 0002954 233.0500 109.0025  5.00115290 85991
O3B FM13                
1 43234U 18024D   22330.74966504 -.00000014  00000+0  00000+0 0  9996
2 43234   0.0600  10.3407 0003882 238.2980 111.3253  5.00115221 86111
SES-12                  
1 43488U 18049A   22331.16438132 -.00000260  00000+0  00000+0 0  9995
2 43488   0.0417  68.3707 0002297 191.5320 320.3509  1.00269800 16390
O3B FM20                
1 44112U 19020A   22330.72282558 -.00000014  00000+0  00000+0 0  9997
2 44112   0.0517   8.4472 0003334 243.5136 108.0082  5.00115419 66602
O3B FM19                
1 44113U 19020B   22330.74967224 -.00000014  00000+0  00000+0 0  9990
2 44113   0.0730  16.8060 0002343 260.0559  83.1169  5.00115261 66488
O3B FM17                
1 44114U 19020C   22331.22989560 -.00000015  00000+0  00000+0 0  9993
2 44114   0.0321  11.1105 0003178 236.2953 112.5655  5.00115557 66714
O3B FM18                
1 44115U 19020D   22330.57671879 -.00000013  00000+0  00000+0 0  9990
2 44115   0.0521   8.4936 0002959 236.8275 114.6536  5.00115735 66682
SES-17                  
1 49332U 21095A   22331.25365330 -.00000263  00000+0  00000+0 0  9996
2 49332   0.0142  15.1681 0000831 221.5222 213.6907  1.00268333  4828
SES-22                  
1 52933U 22071A   22331.44245317  .00000096  00000+0  00000+0 0  9998
2 52933   0.0154 306.3604 0002483 298.8622 205.4178  1.00271313  1556
